{
  "type": "FeatureCollection",
  "features": [
    {
      "type": "Feature",
      "properties": {
        "norad_id": 32126,
        "name": "FENGYUN 1C DEB",
        "group": "fengyun-1c-debris",
        "lat": -14.376989347319991,
        "lon": -133.22533227172937,
        "alt_km": 1062.2145344312194,
        "timestamp": "2025-12-14T11:29:50.345748+00:00",
        "meta_object_name": "FENGYUN 1C DEB",
        "meta_object_id": "1999-025CRU",
        "meta_epoch": "2025-12-08T21:03:50.440032",
        "meta_mean_motion": 13.56787693,
        "meta_eccentricity": 0.0281203,
        "meta_inclination": 99.1098,
        "meta_ra_of_asc_node": 219.2267,
        "meta_arg_of_pericenter": 265.4353,
        "meta_mean_anomaly": 91.4619,
        "meta_ephemeris_type": 0,
        "meta_classification_type": "U",
        "meta_norad_cat_id": 32126,
        "meta_element_set_no": 999,
        "meta_rev_at_epoch": 61662,
        "meta_bstar": 0.0016621,
        "meta_mean_motion_dot": 1.479e-05,
        "meta_mean_motion_ddot": 0,
        "tle_line1": "1 32126U 99025CRU 25342.87766713  .00001479  00000+0  16621-2 0  9998",
        "tle_line2": "2 32126  99.1098 219.2267 0281203 265.4353  91.4619 13.56787693616621"
      },
      "geometry": {
        "type": "Point",
        "coordinates": [
          -133.22533227172937,
          -14.376989347319991
        ]
      }
    },
    {
      "type": "Feature",
      "properties": {
        "norad_id": 32128,
        "name": "FENGYUN 1C DEB",
        "group": "fengyun-1c-debris",
        "lat": 26.37676224854221,
        "lon": -140.8083020170415,
        "alt_km": 780.7995543760571,
        "timestamp": "2025-12-14T11:29:50.345758+00:00",
        "meta_object_name": "FENGYUN 1C DEB",
        "meta_object_id": "1999-025CRW",
        "meta_epoch": "2025-12-13T08:53:46.062528",
        "meta_mean_motion": 13.94224432,
        "meta_eccentricity": 0.03971492,
        "meta_inclination": 99.0318,
        "meta_ra_of_asc_node": 33.581,
        "meta_arg_of_pericenter": 221.1346,
        "meta_mean_anomaly": 135.9247,
        "meta_ephemeris_type": 0,
        "meta_classification_type": "U",
        "meta_norad_cat_id": 32128,
        "meta_element_set_no": 999,
        "meta_rev_at_epoch": 62994,
        "meta_bstar": 0.00091848829,
        "meta_mean_motion_dot": 2.304e-05,
        "meta_mean_motion_ddot": 0,
        "tle_line1": "1 32128U 99025CRW 25347.37067202  .00002304  00000+0  91849-3 0  9991",
        "tle_line2": "2 32128  99.0318  33.5810 0397149 221.1346 135.9247 13.94224432629945"
      },
      "geometry": {
        "type": "Point",
        "coordinates": [
          -140.8083020170415,
          26.37676224854221
        ]
      }
    },
    {
      "type": "Feature",
      "properties": {
        "norad_id": 32129,
        "name": "FENGYUN 1C DEB",
        "group": "fengyun-1c-debris",
        "lat": -78.98818231471799,
        "lon": -128.1416462063019,
        "alt_km": 831.8284062361427,
        "timestamp": "2025-12-14T11:29:50.345768+00:00",
        "meta_object_name": "FENGYUN 1C DEB",
        "meta_object_id": "1999-025CRX",
        "meta_epoch": "2025-12-12T14:37:33.784320",
        "meta_mean_motion": 14.28494713,
        "meta_eccentricity": 0.00677546,
        "meta_inclination": 99.0606,
        "meta_ra_of_asc_node": 105.0048,
        "meta_arg_of_pericenter": 34.3937,
        "meta_mean_anomaly": 340.496,
        "meta_ephemeris_type": 0,
        "meta_classification_type": "U",
        "meta_norad_cat_id": 32129,
        "meta_element_set_no": 999,
        "meta_rev_at_epoch": 94225,
        "meta_bstar": 0.003224381,
        "meta_mean_motion_dot": 8.24e-05,
        "meta_mean_motion_ddot": 0,
        "tle_line1": "1 32129U 99025CRX 25346.60941880  .00008240  00000+0  32244-2 0  9998",
        "tle_line2": "2 32129  99.0606 105.0048 0067754  34.3937 340.4960 14.28494713942256"
      },
      "geometry": {
        "type": "Point",
        "coordinates": [
          -128.1416462063019,
          -78.98818231471799
        ]
      }
    },
    {
      "type": "Feature",
      "properties": {
        "norad_id": 32130,
        "name": "FENGYUN 1C DEB",
        "group": "fengyun-1c-debris",
        "lat": -6.353252752027868,
        "lon": -25.948721549124915,
        "alt_km": 814.4296511420489,
        "timestamp": "2025-12-14T11:29:50.345784+00:00",
        "meta_object_name": "FENGYUN 1C DEB",
        "meta_object_id": "1999-025CRY",
        "meta_epoch": "2025-12-12T06:50:38.827104",
        "meta_mean_motion": 14.37545048,
        "meta_eccentricity": 0.00825122,
        "meta_inclination": 98.9038,
        "meta_ra_of_asc_node": 152.7804,
        "meta_arg_of_pericenter": 331.5241,
        "meta_mean_anomaly": 28.1449,
        "meta_ephemeris_type": 0,
        "meta_classification_type": "U",
        "meta_norad_cat_id": 32130,
        "meta_element_set_no": 999,
        "meta_rev_at_epoch": 96228,
        "meta_bstar": 0.00063289751,
        "meta_mean_motion_dot": 1.924e-05,
        "meta_mean_motion_ddot": 0,
        "tle_line1": "1 32130U 99025CRY 25346.28517161  .00001924  00000+0  63290-3 0  9993",
        "tle_line2": "2 32130  98.9038 152.7804 0082512 331.5241  28.1449 14.37545048962288"
      },
      "geometry": {
        "type": "Point",
        "coordinates": [
          -25.948721549124915,
          -6.353252752027868
        ]
      }
    },
    {
      "type": "Feature",
      "properties": {
        "norad_id": 32133,
        "name": "FENGYUN 1C DEB",
        "group": "fengyun-1c-debris",
        "lat": 76.66021447008099,
        "lon": -49.122686802964374,
        "alt_km": 799.397760845729,
        "timestamp": "2025-12-14T11:29:50.345796+00:00",
        "meta_object_name": "FENGYUN 1C DEB",
        "meta_object_id": "1999-025CSB",
        "meta_epoch": "2025-12-13T06:20:12.624864",
        "meta_mean_motion": 14.18072081,
        "meta_eccentricity": 0.00364291,
        "meta_inclination": 98.4319,
        "meta_ra_of_asc_node": 348.4451,
        "meta_arg_of_pericenter": 99.3887,
        "meta_mean_anomaly": 261.1411,
        "meta_ephemeris_type": 0,
        "meta_classification_type": "U",
        "meta_norad_cat_id": 32133,
        "meta_element_set_no": 999,
        "meta_rev_at_epoch": 94982,
        "meta_bstar": 0.00029202222,
        "meta_mean_motion_dot": 5.62e-06,
        "meta_mean_motion_ddot": 0,
        "tle_line1": "1 32133U 99025CSB 25347.26403501  .00000562  00000+0  29202-3 0  9999",
        "tle_line2": "2 32133  98.4319 348.4451 0036429  99.3887 261.1411 14.18072081949825"
      },
      "geometry": {
        "type": "Point",
        "coordinates": [
          -49.122686802964374,
          76.66021447008099
        ]
      }
    },
    {
      "type": "Feature",
      "properties": {
        "norad_id": 32134,
        "name": "FENGYUN 1C DEB",
        "group": "fengyun-1c-debris",
        "lat": -44.2311941079151,
        "lon": 0.09619314988682226,
        "alt_km": 720.8991210962631,
        "timestamp": "2025-12-14T11:29:50.345806+00:00",
        "meta_object_name": "FENGYUN 1C DEB",
        "meta_object_id": "1999-025CSC",
        "meta_epoch": "2025-12-12T19:46:13.278720",
        "meta_mean_motion": 14.21556709,
        "meta_eccentricity": 0.02589769,
        "meta_inclination": 98.5953,
        "meta_ra_of_asc_node": 350.0151,
        "meta_arg_of_pericenter": 263.3717,
        "meta_mean_anomaly": 223.0495,
        "meta_ephemeris_type": 0,
        "meta_classification_type": "U",
        "meta_norad_cat_id": 32134,
        "meta_element_set_no": 999,
        "meta_rev_at_epoch": 95148,
        "meta_bstar": 0.0010048423,
        "meta_mean_motion_dot": 3.046e-05,
        "meta_mean_motion_ddot": 0,
        "tle_line1": "1 32134U 99025CSC 25346.82376480  .00003046  00000+0  10048-2 0  9993",
        "tle_line2": "2 32134  98.5953 350.0151 0258976 263.3717 223.0495 14.21556709951487"
      },
      "geometry": {
        "type": "Point",
        "coordinates": [
          0.09619314988682226,
          -44.2311941079151
        ]
      }
    },
    {
      "type": "Feature",
      "properties": {
        "norad_id": 32137,
        "name": "FENGYUN 1C DEB",
        "group": "fengyun-1c-debris",
        "lat": 72.72647042790135,
        "lon": -35.656406312967114,
        "alt_km": 585.4594840419022,
        "timestamp": "2025-12-14T11:29:50.345818+00:00",
        "meta_object_name": "FENGYUN 1C DEB",
        "meta_object_id": "1999-025CSF",
        "meta_epoch": "2025-12-12T03:55:05.430720",
        "meta_mean_motion": 14.81229537,
        "meta_eccentricity": 0.01876242,
        "meta_inclination": 98.4418,
        "meta_ra_of_asc_node": 113.3755,
        "meta_arg_of_pericenter": 35.9319,
        "meta_mean_anomaly": 325.4341,
        "meta_ephemeris_type": 0,
        "meta_classification_type": "U",
        "meta_norad_cat_id": 32137,
        "meta_element_set_no": 999,
        "meta_rev_at_epoch": 66722,
        "meta_bstar": 0.0012143683,
        "meta_mean_motion_dot": 0.00012783,
        "meta_mean_motion_ddot": 0,
        "tle_line1": "1 32137U 99025CSF 25346.16325730  .00012783  00000+0  12144-2 0  9992",
        "tle_line2": "2 32137  98.4418 113.3755 0187624  35.9319 325.4341 14.81229537667222"
      },
      "geometry": {
        "type": "Point",
        "coordinates": [
          -35.656406312967114,
          72.72647042790135
        ]
      }
    }
  ]
}